KUIPER-00016            
1 63732U 25088J   25287.30528602 -.00008216  00000+0 -10485-2 0  9992
2 63732  51.9018  38.9025 0010948 301.7647  58.2248 14.79936525 25652
KUIPER-00018            
1 63733U 25088K   25287.28252106  .00005550  00000+0  80915-3 0  9995
2 63733  51.9014  27.5879 0012296 329.8343  30.1909 14.77012128 25815
KUIPER-00019            
1 63734U 25088L   25285.56298416  .00057968  00000+0  76661-2 0  9991
2 63734  51.8995  34.1119 0005622 337.1619  22.9092 14.79379516 25571
KUIPER-00020            
1 63735U 25088M   25287.31512652 -.00006363  00000+0 -80787-3 0  9998
2 63735  51.9043  30.3409 0007290 316.6020  43.4368 14.79826734 25986
KUIPER-00021            
1 63736U 25088N   25287.31339795 -.00000541  00000+0 -41681-4 0  9997
2 63736  51.9007  31.3464 0005704 319.7372  40.3168 14.79963128 25805
KUIPER-00023            
1 63737U 25088P   25287.31246672  .00004261  00000+0  58732-3 0  9994
2 63737  51.9029  32.8208 0011354 335.8941  24.1489 14.79930435 26083
KUIPER-00024            
1 63738U 25088Q   25287.23710786  .00003223  00000+0  45853-3 0  9995
2 63738  51.9041  20.4671 0004090 335.6699  24.4070 14.79279059 26371
KUIPER-00025            
1 63739U 25088R   25287.31615881  .00044206  00000+0  58020-2 0  9990
2 63739  51.9028  28.8645 0008285 309.5413  50.4817 14.79822397 26124
